EXCITE                  
1 43819U 18099BP  26068.69809098  .00002813  00000+0  19631-3 0  9999
2 43819  97.4107 111.3606 0017626 337.4818  22.5634 15.06036758396774
STARLINK-3113           
1 49735U 21115M   26068.50859719 -.00000844  00000+0 -34922-4 0  9995
2 49735  53.2161 159.8171 0001222 105.1860 254.9268 15.08842889235366
